CCSDS_OMM_VERS = 2.0
CREATION_DATE  = 
ORIGINATOR     = 

OBJECT_NAME    = ERS-1
OBJECT_ID      = 1991-050A
CENTER_NAME    = EARTH
REF_FRAME      = TEME
TIME_SYSTEM    = UTC
MEAN_ELEMENT_THEORY = SGP/SGP4

EPOCH          = 2026-03-23T01:02:30.344928
MEAN_MOTION    = 14.39459111
ECCENTRICITY   = .00323811
INCLINATION    = 98.7871
RA_OF_ASC_NODE = 100.6132
ARG_OF_PERICENTER = 160.8678
MEAN_ANOMALY   = 199.3733

EPHEMERIS_TYPE = 0
CLASSIFICATION_TYPE = U
NORAD_CAT_ID   = 21574
ELEMENT_SET_NO = 999
REV_AT_EPOCH   = 81765
BSTAR          = .11684675E-3
MEAN_MOTION_DOT = .32E-5
MEAN_MOTION_DDOT = 0

CCSDS_OMM_VERS = 2.0
CREATION_DATE  = 
ORIGINATOR     = 

OBJECT_NAME    = ARIANE 40 R/B
OBJECT_ID      = 1991-050F
CENTER_NAME    = EARTH
REF_FRAME      = TEME
TIME_SYSTEM    = UTC
MEAN_ELEMENT_THEORY = SGP/SGP4

EPOCH          = 2026-03-23T03:09:59.065632
MEAN_MOTION    = 14.42902894
ECCENTRICITY   = .00038799
INCLINATION    = 98.1984
RA_OF_ASC_NODE = 133.8622
ARG_OF_PERICENTER = 51.6014
MEAN_ANOMALY   = 308.5525

EPHEMERIS_TYPE = 0
CLASSIFICATION_TYPE = U
NORAD_CAT_ID   = 21610
ELEMENT_SET_NO = 999
REV_AT_EPOCH   = 82093
BSTAR          = .10201985E-3
MEAN_MOTION_DOT = .299E-5
MEAN_MOTION_DDOT = 0

CCSDS_OMM_VERS = 2.0
CREATION_DATE  = 
ORIGINATOR     = 

OBJECT_NAME    = INTERCOSMOS 25
OBJECT_ID      = 1991-086A
CENTER_NAME    = EARTH
REF_FRAME      = TEME
TIME_SYSTEM    = UTC
MEAN_ELEMENT_THEORY = SGP/SGP4

EPOCH          = 2026-03-23T02:43:00.121440
MEAN_MOTION    = 12.12045677
ECCENTRICITY   = .14867407
INCLINATION    = 82.6022
RA_OF_ASC_NODE = 301.8943
ARG_OF_PERICENTER = 88.0096
MEAN_ANOMALY   = 288.9953

EPHEMERIS_TYPE = 0
CLASSIFICATION_TYPE = U
NORAD_CAT_ID   = 21819
ELEMENT_SET_NO = 999
REV_AT_EPOCH   = 49831
BSTAR          = .35295532E-3
MEAN_MOTION_DOT = .1837E-4
MEAN_MOTION_DDOT = 0

CCSDS_OMM_VERS = 2.0
CREATION_DATE  = 
ORIGINATOR     = 

OBJECT_NAME    = SL-8 R/B
OBJECT_ID      = 1992-008B
CENTER_NAME    = EARTH
REF_FRAME      = TEME
TIME_SYSTEM    = UTC
MEAN_ELEMENT_THEORY = SGP/SGP4

EPOCH          = 2026-03-23T06:28:25.008960
MEAN_MOTION    = 13.75969561
ECCENTRICITY   = .00359279
INCLINATION    = 82.9223
RA_OF_ASC_NODE = 257.6732
ARG_OF_PERICENTER = 96.6402
MEAN_ANOMALY   = 76.1748

EPHEMERIS_TYPE = 0
CLASSIFICATION_TYPE = U
NORAD_CAT_ID   = 21876
ELEMENT_SET_NO = 999
REV_AT_EPOCH   = 71128
BSTAR          = -.11747303E-4
MEAN_MOTION_DOT = .4E-7
MEAN_MOTION_DDOT = 0

CCSDS_OMM_VERS = 2.0
CREATION_DATE  = 
ORIGINATOR     = 

OBJECT_NAME    = SL-8 R/B
OBJECT_ID      = 1992-020B
CENTER_NAME    = EARTH
REF_FRAME      = TEME
TIME_SYSTEM    = UTC
MEAN_ELEMENT_THEORY = SGP/SGP4

EPOCH          = 2026-03-23T05:19:02.208576
MEAN_MOTION    = 13.75550353
ECCENTRICITY   = .00276024
INCLINATION    = 82.9315
RA_OF_ASC_NODE = 143.7152
ARG_OF_PERICENTER = 259.1994
MEAN_ANOMALY   = 161.1255

EPHEMERIS_TYPE = 0
CLASSIFICATION_TYPE = U
NORAD_CAT_ID   = 21938
ELEMENT_SET_NO = 999
REV_AT_EPOCH   = 70299
BSTAR          = .23454417E-4
MEAN_MOTION_DOT = .38E-6
MEAN_MOTION_DDOT = 0

CCSDS_OMM_VERS = 2.0
CREATION_DATE  = 
ORIGINATOR     = 

OBJECT_NAME    = USA 81
OBJECT_ID      = 1992-023A
CENTER_NAME    = EARTH
REF_FRAME      = TEME
TIME_SYSTEM    = UTC
MEAN_ELEMENT_THEORY = SGP/SGP4

EPOCH          = 2026-03-23T03:23:30.484320
MEAN_MOTION    = 14.32372157
ECCENTRICITY   = .00020265
INCLINATION    = 85.0058
RA_OF_ASC_NODE = 123.6792
ARG_OF_PERICENTER = 69.0851
MEAN_ANOMALY   = 291.0559

EPHEMERIS_TYPE = 0
CLASSIFICATION_TYPE = U
NORAD_CAT_ID   = 21949
ELEMENT_SET_NO = 999
REV_AT_EPOCH   = 9671
BSTAR          = .53620344E-4
MEAN_MOTION_DOT = .165E-5
MEAN_MOTION_DDOT = 0

CCSDS_OMM_VERS = 2.0
CREATION_DATE  = 
ORIGINATOR     = 

OBJECT_NAME    = COSMOS 2219
OBJECT_ID      = 1992-076A
CENTER_NAME    = EARTH
REF_FRAME      = TEME
TIME_SYSTEM    = UTC
MEAN_ELEMENT_THEORY = SGP/SGP4

EPOCH          = 2026-03-23T04:09:44.672544
MEAN_MOTION    = 14.14092725
ECCENTRICITY   = .00181959
INCLINATION    = 71.0637
RA_OF_ASC_NODE = 349.8839
ARG_OF_PERICENTER = 187.7471
MEAN_ANOMALY   = 172.3374

EPHEMERIS_TYPE = 0
CLASSIFICATION_TYPE = U
NORAD_CAT_ID   = 22219
ELEMENT_SET_NO = 999
REV_AT_EPOCH   = 72028
BSTAR          = -.56650702E-4
MEAN_MOTION_DOT = -.155E-5
MEAN_MOTION_DDOT = 0

CCSDS_OMM_VERS = 2.0
CREATION_DATE  = 
ORIGINATOR     = 

OBJECT_NAME    = SL-16 R/B
OBJECT_ID      = 1992-076B
CENTER_NAME    = EARTH
REF_FRAME      = TEME
TIME_SYSTEM    = UTC
MEAN_ELEMENT_THEORY = SGP/SGP4

EPOCH          = 2026-03-23T06:01:59.188800
MEAN_MOTION    = 14.16862832
ECCENTRICITY   = .00106262
INCLINATION    = 71.0007
RA_OF_ASC_NODE = 159.8087
ARG_OF_PERICENTER = 71.1237
MEAN_ANOMALY   = 348.2856

EPHEMERIS_TYPE = 0
CLASSIFICATION_TYPE = U
NORAD_CAT_ID   = 22220
ELEMENT_SET_NO = 999
REV_AT_EPOCH   = 72375
BSTAR          = .13283049E-3
MEAN_MOTION_DOT = .219E-5
MEAN_MOTION_DDOT = 0

CCSDS_OMM_VERS = 2.0
CREATION_DATE  = 
ORIGINATOR     = 

OBJECT_NAME    = COSMOS 2221
OBJECT_ID      = 1992-080A
CENTER_NAME    = EARTH
REF_FRAME      = TEME
TIME_SYSTEM    = UTC
MEAN_ELEMENT_THEORY = SGP/SGP4

EPOCH          = 2026-03-23T05:07:10.869600
MEAN_MOTION    = 14.96253423
ECCENTRICITY   = .00151441
INCLINATION    = 82.5002
RA_OF_ASC_NODE = 266.1230
ARG_OF_PERICENTER = 142.7903
MEAN_ANOMALY   = 217.4372

EPHEMERIS_TYPE = 0
CLASSIFICATION_TYPE = U
NORAD_CAT_ID   = 22236
ELEMENT_SET_NO = 999
REV_AT_EPOCH   = 78281
BSTAR          = .1841083E-3
MEAN_MOTION_DOT = .2108E-4
MEAN_MOTION_DDOT = 0

CCSDS_OMM_VERS = 2.0
CREATION_DATE  = 
ORIGINATOR     = 

OBJECT_NAME    = SL-16 R/B
OBJECT_ID      = 1992-093B
CENTER_NAME    = EARTH
REF_FRAME      = TEME
TIME_SYSTEM    = UTC
MEAN_ELEMENT_THEORY = SGP/SGP4

EPOCH          = 2026-03-23T04:00:14.316768
MEAN_MOTION    = 14.15450887
ECCENTRICITY   = .00063357
INCLINATION    = 71.0237
RA_OF_ASC_NODE = 335.9762
ARG_OF_PERICENTER = 280.2889
MEAN_ANOMALY   = 79.7520

EPHEMERIS_TYPE = 0
CLASSIFICATION_TYPE = U
NORAD_CAT_ID   = 22285
ELEMENT_SET_NO = 999
REV_AT_EPOCH   = 71506
BSTAR          = .20481882E-3
MEAN_MOTION_DOT = .352E-5
MEAN_MOTION_DDOT = 0

CCSDS_OMM_VERS = 2.0
CREATION_DATE  = 
ORIGINATOR     = 

OBJECT_NAME    = COSMOS 2228
OBJECT_ID      = 1992-094A
CENTER_NAME    = EARTH
REF_FRAME      = TEME
TIME_SYSTEM    = UTC
MEAN_ELEMENT_THEORY = SGP/SGP4

EPOCH          = 2026-03-23T05:17:44.958336
MEAN_MOTION    = 14.97257532
ECCENTRICITY   = .0016631
INCLINATION    = 82.5181
RA_OF_ASC_NODE = 224.3539
ARG_OF_PERICENTER = 255.1700
MEAN_ANOMALY   = 104.7680

EPHEMERIS_TYPE = 0
CLASSIFICATION_TYPE = U
NORAD_CAT_ID   = 22286
ELEMENT_SET_NO = 999
REV_AT_EPOCH   = 77808
BSTAR          = .24741924E-3
MEAN_MOTION_DOT = .2898E-4
MEAN_MOTION_DDOT = 0

CCSDS_OMM_VERS = 2.0
CREATION_DATE  = 
ORIGINATOR     = 

OBJECT_NAME    = SL-16 R/B
OBJECT_ID      = 1993-016B
CENTER_NAME    = EARTH
REF_FRAME      = TEME
TIME_SYSTEM    = UTC
MEAN_ELEMENT_THEORY = SGP/SGP4

EPOCH          = 2026-03-23T05:00:20.475648
MEAN_MOTION    = 14.15306327
ECCENTRICITY   = .00123588
INCLINATION    = 71.0081
RA_OF_ASC_NODE = 186.7894
ARG_OF_PERICENTER = 296.5502
MEAN_ANOMALY   = 63.4353

EPHEMERIS_TYPE = 0
CLASSIFICATION_TYPE = U
NORAD_CAT_ID   = 22566
ELEMENT_SET_NO = 999
REV_AT_EPOCH   = 70408
BSTAR          = -.83872292E-4
MEAN_MOTION_DOT = -.211E-5
MEAN_MOTION_DDOT = 0

